{"type": "FeatureCollection", "features": [ {"type": "Feature", "properties": {"norad_id": 34327, "name": "COSMOS 2251 DEB", "group": "cosmos-2251-debris", "lat": -39.27056642333825, "lon": 146.45089620971515, "alt_km": 584.0467362027675, "timestamp": "2025-12-18T15:47:11.619448+00:00", "meta": {"OBJECT_NAME": "COSMOS 2251 DEB", "OBJECT_ID": "1993-036NZ", "EPOCH": "2025-12-17T22:46:47.813664", "MEAN_MOTION": 14.89293767, "ECCENTRICITY": 0.00331336, "INCLINATION": 73.9927, "RA_OF_ASC_NODE": 161.4457, "ARG_OF_PERICENTER": 336.7826, "MEAN_ANOMALY": 144.6355, "EPHEMERIS_TYPE": 0, "CLASSIFICATION_TYPE": "U", "NORAD_CAT_ID": 34327, "ELEMENT_SET_NO": 999, "REV_AT_EPOCH": 89585, "BSTAR": 0.0009334137, "MEAN_MOTION_DOT": 8.911e-05, "MEAN_MOTION_DDOT": 0}, "tle": {"line1": "1 34327U 93036NZ  25351.94916451  .00008911  00000+0  93341-3 0  9996", "line2": "2 34327  73.9927 161.4457 0033133 336.7826 144.6355 14.89293767895853"}}, "geometry": {"type": "Point", "coordinates": [146.45089620971515, -39.27056642333825]}}, {"type": "Feature", "properties": {"norad_id": 34340, "name": "COSMOS 2251 DEB", "group": "cosmos-2251-debris", "lat": -59.5075965874664, "lon": -90.8913304509342, "alt_km": 1031.3445192477284, "timestamp": "2025-12-18T15:47:11.619458+00:00", "meta": {"OBJECT_NAME": "COSMOS 2251 DEB", "OBJECT_ID": "1993-036PN", "EPOCH": "2025-12-18T06:12:07.555392", "MEAN_MOTION": 13.79593046, "ECCENTRICITY": 0.02833265, "INCLINATION": 74.0787, "RA_OF_ASC_NODE": 298.7695, "ARG_OF_PERICENTER": 45.2538, "MEAN_ANOMALY": 71.6147, "EPHEMERIS_TYPE": 0, "CLASSIFICATION_TYPE": "U", "NORAD_CAT_ID": 34340, "ELEMENT_SET_NO": 999, "REV_AT_EPOCH": 84344, "BSTAR": 0.0013188692, "MEAN_MOTION_DOT": 1.817e-05, "MEAN_MOTION_DDOT": 0}, "tle": {"line1": "1 34340U 93036PN  25352.25842078  .00001817  00000+0  13189-2 0  9998", "line2": "2 34340  74.0787 298.7695 0283326  45.2538  71.6147 13.79593046843442"}}, "geometry": {"type": "Point", "coordinates": [-90.8913304509342, -59.5075965874664]}}, {"type": "Feature", "properties": {"norad_id": 34343, "name": "COSMOS 2251 DEB", "group": "cosmos-2251-debris", "lat": 50.509095143405816, "lon": -122.26967144540454, "alt_km": 669.5899438493207, "timestamp": "2025-12-18T15:47:11.619468+00:00", "meta": {"OBJECT_NAME": "COSMOS 2251 DEB", "OBJECT_ID": "1993-036PR", "EPOCH": "2025-12-18T07:17:54.983904", "MEAN_MOTION": 14.69526384, "ECCENTRICITY": 0.0023866, "INCLINATION": 74.0206, "RA_OF_ASC_NODE": 78.7639, "ARG_OF_PERICENTER": 351.6282, "MEAN_ANOMALY": 64.501, "EPHEMERIS_TYPE": 0, "CLASSIFICATION_TYPE": "U", "NORAD_CAT_ID": 34343, "ELEMENT_SET_NO": 999, "REV_AT_EPOCH": 88812, "BSTAR": 0.0010587252, "MEAN_MOTION_DOT": 6.282e-05, "MEAN_MOTION_DDOT": 0}, "tle": {"line1": "1 34343U 93036PR  25352.30410861  .00006282  00000+0  10587-2 0  9998", "line2": "2 34343  74.0206  78.7639 0023866 351.6282  64.5010 14.69526384888121"}}, "geometry": {"type": "Point", "coordinates": [-122.26967144540454, 50.509095143405816]}}, {"type": "Feature", "properties": {"norad_id": 34344, "name": "COSMOS 2251 DEB", "group": "cosmos-2251-debris", "lat": 3.3997328123963806, "lon": -81.1942343101691, "alt_km": 869.6060121390237, "timestamp": "2025-12-18T15:47:11.619478+00:00", "meta": {"OBJECT_NAME": "COSMOS 2251 DEB", "OBJECT_ID": "1993-036PS", "EPOCH": "2025-12-17T08:42:03.547584", "MEAN_MOTION": 14.16444992, "ECCENTRICITY": 0.0156104, "INCLINATION": 73.9788, "RA_OF_ASC_NODE": 102.095, "ARG_OF_PERICENTER": 285.3081, "MEAN_ANOMALY": 130.6884, "EPHEMERIS_TYPE": 0, "CLASSIFICATION_TYPE": "U", "NORAD_CAT_ID": 34344, "ELEMENT_SET_NO": 999, "REV_AT_EPOCH": 86162, "BSTAR": 0.0016063486, "MEAN_MOTION_DOT": 3.573e-05, "MEAN_MOTION_DDOT": 0}, "tle": {"line1": "1 34344U 93036PS  25351.36254106  .00003573  00000+0  16063-2 0  9997", "line2": "2 34344  73.9788 102.0950 0156104 285.3081 130.6884 14.16444992861620"}}, "geometry": {"type": "Point", "coordinates": [-81.1942343101691, 3.3997328123963806]}}, {"type": "Feature", "properties": {"norad_id": 34346, "name": "COSMOS 2251 DEB", "group": "cosmos-2251-debris", "lat": -61.06685763912621, "lon": -89.30376815542574, "alt_km": 1050.9718154149332, "timestamp": "2025-12-18T15:47:11.619488+00:00", "meta": {"OBJECT_NAME": "COSMOS 2251 DEB", "OBJECT_ID": "1993-036PU", "EPOCH": "2025-12-17T21:32:12.297984", "MEAN_MOTION": 13.99708134, "ECCENTRICITY": 0.02061764, "INCLINATION": 73.9945, "RA_OF_ASC_NODE": 303.2966, "ARG_OF_PERICENTER": 120.985, "MEAN_ANOMALY": 303.0993, "EPHEMERIS_TYPE": 0, "CLASSIFICATION_TYPE": "U", "NORAD_CAT_ID": 34346, "ELEMENT_SET_NO": 999, "REV_AT_EPOCH": 85482, "BSTAR": 0.00078414388, "MEAN_MOTION_DOT": 1.356e-05, "MEAN_MOTION_DDOT": 0}, "tle": {"line1": "1 34346U 93036PU  25351.89736456  .00001356  00000+0  78414-3 0  9996", "line2": "2 34346  73.9945 303.2966 0206176 120.9850 303.0993 13.99708134854824"}}, "geometry": {"type": "Point", "coordinates": [-89.30376815542574, -61.06685763912621]}}, {"type": "Feature", "properties": {"norad_id": 34383, "name": "COSMOS 2251 DEB", "group": "cosmos-2251-debris", "lat": -52.911370707805396, "lon": -96.78218547019995, "alt_km": 544.7832100291098, "timestamp": "2025-12-18T15:47:11.619499+00:00", "meta": {"OBJECT_NAME": "COSMOS 2251 DEB", "OBJECT_ID": "1993-036PY", "EPOCH": "2025-12-17T21:11:36.601728", "MEAN_MOTION": 15.09436558, "ECCENTRICITY": 0.00027956, "INCLINATION": 74.022, "RA_OF_ASC_NODE": 287.0888, "ARG_OF_PERICENTER": 47.2738, "MEAN_ANOMALY": 8.7279, "EPHEMERIS_TYPE": 0, "CLASSIFICATION_TYPE": "U", "NORAD_CAT_ID": 34383, "ELEMENT_SET_NO": 999, "REV_AT_EPOCH": 89191, "BSTAR": 0.0021473585, "MEAN_MOTION_DOT": 0.00034495, "MEAN_MOTION_DDOT": 0}, "tle": {"line1": "1 34383U 93036PY  25351.88306252  .00034495  00000+0  21474-2 0  9996", "line2": "2 34383  74.0220 287.0888 0002795  47.2738   8.7279 15.09436558891910"}}, "geometry": {"type": "Point", "coordinates": [-96.78218547019995, -52.911370707805396]}}, {"type": "Feature", "properties": {"norad_id": 34387, "name": "COSMOS 2251 DEB", "group": "cosmos-2251-debris", "lat": -66.59623707803159, "lon": 159.50237478925348, "alt_km": 725.4552966833926, "timestamp": "2025-12-18T15:47:11.619579+00:00", "meta": {"OBJECT_NAME": "COSMOS 2251 DEB", "OBJECT_ID": "1993-036QC", "EPOCH": "2025-12-17T15:28:18.427872", "MEAN_MOTION": 14.4383116, "ECCENTRICITY": 0.00388255, "INCLINATION": 74.0391, "RA_OF_ASC_NODE": 202.779, "ARG_OF_PERICENTER": 298.871, "MEAN_ANOMALY": 124.7412, "EPHEMERIS_TYPE": 0, "CLASSIFICATION_TYPE": "U", "NORAD_CAT_ID": 34387, "ELEMENT_SET_NO": 999, "REV_AT_EPOCH": 88252, "BSTAR": 0.00024402, "MEAN_MOTION_DOT": 8.11e-06, "MEAN_MOTION_DDOT": 0}, "tle": {"line1": "1 34387U 93036QC  25351.64465773  .00000811  00000+0  24402-3 0  9998", "line2": "2 34387  74.0391 202.7790 0038825 298.8710 124.7412 14.43831160882526"}}, "geometry": {"type": "Point", "coordinates": [159.50237478925348, -66.59623707803159]}}, {"type": "Feature", "properties": {"norad_id": 34388, "name": "COSMOS 2251 DEB", "group": "cosmos-2251-debris", "lat": 27.042334087369227, "lon": -139.59349463541307, "alt_km": 732.3706168352182, "timestamp": "2025-12-18T15:47:11.619593+00:00", "meta": {"OBJECT_NAME": "COSMOS 2251 DEB", "OBJECT_ID": "1993-036QD", "EPOCH": "2025-12-17T21:31:25.457088", "MEAN_MOTION": 14.49390401, "ECCENTRICITY": 0.00139021, "INCLINATION": 74.0385, "RA_OF_ASC_NODE": 213.4325, "ARG_OF_PERICENTER": 261.3562, "MEAN_ANOMALY": 117.9584, "EPHEMERIS_TYPE": 0, "CLASSIFICATION_TYPE": "U", "NORAD_CAT_ID": 34388, "ELEMENT_SET_NO": 999, "REV_AT_EPOCH": 88230, "BSTAR": 0.00049307569, "MEAN_MOTION_DOT": 1.86e-05, "MEAN_MOTION_DDOT": 0}, "tle": {"line1": "1 34388U 93036QD  25351.89682242  .00001860  00000+0  49308-3 0  9995", "line2": "2 34388  74.0385 213.4325 0013902 261.3562 117.9584 14.49390401882306"}}, "geometry": {"type": "Point", "coordinates": [-139.59349463541307, 27.042334087369227]}}, {"type": "Feature", "properties": {"norad_id": 34389, "name": "COSMOS 2251 DEB", "group": "cosmos-2251-debris", "lat": -59.371542531922145, "lon": 87.79079395237652, "alt_km": 765.9377524818892, "timestamp": "2025-12-18T15:47:11.619604+00:00", "meta": {"OBJECT_NAME": "COSMOS 2251 DEB", "OBJECT_ID": "1993-036QE", "EPOCH": "2025-12-18T03:42:19.040256", "MEAN_MOTION": 14.41545905, "ECCENTRICITY": 0.0029148, "INCLINATION": 74.0182, "RA_OF_ASC_NODE": 239.774, "ARG_OF_PERICENTER": 350.8004, "MEAN_ANOMALY": 161.6868, "EPHEMERIS_TYPE": 0, "CLASSIFICATION_TYPE": "U", "NORAD_CAT_ID": 34389, "ELEMENT_SET_NO": 999, "REV_AT_EPOCH": 88090, "BSTAR": 0.00028115295, "MEAN_MOTION_DOT": 8.92e-06, "MEAN_MOTION_DDOT": 0}, "tle": {"line1": "1 34389U 93036QE  25352.15438704  .00000892  00000+0  28115-3 0  9995", "line2": "2 34389  74.0182 239.7740 0029148 350.8004 161.6868 14.41545905880906"}}, "geometry": {"type": "Point", "coordinates": [87.79079395237652, -59.371542531922145]}}, {"type": "Feature", "properties": {"norad_id": 34396, "name": "COSMOS 2251 DEB", "group": "cosmos-2251-debris", "lat": 28.962356752393028, "lon": -76.64794173967671, "alt_km": 640.9545491694344, "timestamp": "2025-12-18T15:47:11.619615+00:00", "meta": {"OBJECT_NAME": "COSMOS 2251 DEB", "OBJECT_ID": "1993-036QM", "EPOCH": "2025-12-17T10:03:31.244832", "MEAN_MOTION": 14.74545595, "ECCENTRICITY": 0.00054898, "INCLINATION": 74.0285, "RA_OF_ASC_NODE": 114.8913, "ARG_OF_PERICENTER": 154.0758, "MEAN_ANOMALY": 262.9948, "EPHEMERIS_TYPE": 0, "CLASSIFICATION_TYPE": "U", "NORAD_CAT_ID": 34396, "ELEMENT_SET_NO": 999, "REV_AT_EPOCH": 88415, "BSTAR": 0.0016322512, "MEAN_MOTION_DOT": 0.00010854, "MEAN_MOTION_DDOT": 0}, "tle": {"line1": "1 34396U 93036QM  25351.41911163  .00010854  00000+0  16323-2 0  9992", "line2": "2 34396  74.0285 114.8913 0005489 154.0758 262.9948 14.74545595884151"}}, "geometry": {"type": "Point", "coordinates": [-76.64794173967671, 28.962356752393028]}}]}